STARLINK-31208          
1 59037U 24038Q   26067.91396105 -.00000926  00000+0 -24145-4 0  9994
2 59037  43.0025  31.8631 0001169 253.0933 106.9790 15.27576868114692
YAOGAN-43 01G           
1 60464U 24148G   26068.44348481  .00010133  00000+0  35873-3 0  9993
2 60464  35.0006  62.0013 0007382 306.3543  53.6492 15.28332833 87004
